{"type":"FeatureCollection","metadata":{"source":"Natural Earth 1:10m admin-0 countries, India point of view (public domain)","processing":"union, simplify 0.01 deg, 0.05 deg coastal buffer"},"features":[{"type":"Feature","properties":{"name":"India"},"geometry":{"type":"MultiPolygon","coordinates":[[[[68.1578,23.6996],[68.1143,23.7502],[68.1348,23.8546],[68.1732,23.9136],[68.2134,23.9321],[68.2363,23.9776],[68.2829,23.9821],[68.3039,24.0089],[68.3394,24.0185],[68.3799,24.0018],[68.4275,24.017],[68.6747,24.0155],[68.6768,24.2987],[68.7079,24.3619],[68.7352,24.3797],[68.8156,24.3763],[68.8465,24.3452],[68.9159,24.3692],[68.9783,24.314],[69.069,24.3384],[69.1688,24.3055],[69.2773,24.3336],[69.5693,24.3264],[69.7309,24.2184],[69.9674,24.2153],[70.0121,24.2343],[70.073,24.3422],[70.2241,24.3777],[70.4089,24.4514],[70.5836,24.4696],[70.6243,24.4094],[70.6,24.3506],[70.6112,24.3052],[70.6368,24.2902],[70.7488,24.2821],[70.7918,24.297],[70.8041,24.3396],[70.8924,24.4049],[70.9873,24.4099],[70.9316,24.4443],[70.9297,24.5139],[70.9048,24.5842],[70.9357,24.6676],[70.9944,24.704],[70.8693,24.9269],[70.8048,25.1356],[70.6946,25.2377],[70.6668,25.3095],[70.6079,25.3783],[70.6039,25.6558],[70.4826,25.6266],[70.3613,25.6235],[70.2301,25.6615],[70.1723,25.757],[70.0765,25.8498],[70.0146,25.9811],[70.0308,26.1154],[70.0974,26.2317],[70.1074,26.512],[70.0482,26.5388],[69.7994,26.533],[69.7469,26.552],[69.6355,26.6332],[69.4818,26.6904],[69.4374,26.7313],[69.4153,26.8119],[69.4592,27.0628],[69.4897,27.1478],[69.5402,27.2237],[69.8109,27.4446],[69.8723,27.5322],[69.9525,27.6017],[70.0666,27.8471],[70.3256,28.0587],[70.4548,28.0898],[70.5589,28.0598],[70.6751,27.9588],[70.6894,27.8711],[70.7467,27.7775],[70.8296,27.7521],[70.8993,27.7659],[71.2155,27.8942],[71.3911,27.9179],[71.5536,27.9185],[71.8311,27.9992],[71.8645,28.1597],[71.9538,28.2644],[72.1107,28.3866],[72.1512,28.4637],[72.2122,28.6688],[72.3193,28.8026],[72.8955,29.0863],[73.1875,29.5583],[73.3335,29.9611],[73.5425,30.0601],[73.72,30.0955],[73.8907,30.2122],[73.8571,30.2908],[73.7971,30.3316],[73.8114,30.4021],[73.8501,30.426],[73.8719,30.4635],[73.908,30.4716],[73.9728,30.5477],[74.0115,30.5662],[74.0274,30.6405],[74.1263,30.7012],[74.2085,30.8021],[74.2185,30.8476],[74.2594,30.8732],[74.2847,30.9296],[74.3765,30.9432],[74.4171,30.9897],[74.4953,31.0085],[74.5218,31.0333],[74.5349,31.0653],[74.4946,31.0883],[74.4567,31.1806],[74.4862,31.3227],[74.562,31.4622],[74.5111,31.5888],[74.4394,31.7104],[74.5117,31.8586],[74.6334,31.94],[74.6737,31.9937],[74.7554,31.9955],[74.8054,32.0697],[74.9337,32.0812],[75.0137,32.1439],[75.0998,32.1314],[75.1362,32.1434],[75.1763,32.1747],[75.257,32.1922],[75.2973,32.2657],[75.208,32.3347],[75.0155,32.414],[74.9062,32.3952],[74.8308,32.4236],[74.726,32.4108],[74.6659,32.4272],[74.6204,32.4715],[74.5811,32.5757],[74.6051,32.6507],[74.6006,32.7098],[74.5007,32.696],[74.4288,32.7329],[74.3309,32.7193],[74.2592,32.7938],[73.9587,32.9254],[73.9135,32.9753],[73.7891,32.9681],[73.5827,33.0943],[73.5737,33.1352],[73.6006,33.1715],[73.5489,33.191],[73.5313,33.2256],[73.5528,33.3212],[73.5241,33.3928],[73.5715,33.4793],[73.5769,33.5523],[73.5235,33.6272],[73.5472,33.7089],[73.5173,33.8003],[73.5281,33.8988],[73.4704,33.9946],[73.4267,34.2498],[73.3566,34.351],[73.3517,34.3878],[73.3772,34.4442],[73.3892,34.5377],[73.4265,34.6035],[73.4573,34.6201],[73.6049,34.6369],[73.6043,34.6951],[73.6714,34.7957],[73.7197,34.8303],[73.8091,34.8594],[73.8675,34.8606],[73.9324,34.9076],[73.9873,34.924],[74.0327,35.0182],[74.0177,35.0587],[74.0381,35.096],[73.8012,35.1808],[73.7272,35.166],[73.694,35.1744],[73.6399,35.2947],[73.6408,35.3653],[73.6881,35.4484],[73.7285,35.4778],[73.6277,35.4927],[73.4986,35.4842],[73.4421,35.5072],[73.4003,35.4986],[73.3531,35.5423],[73.2826,35.5567],[73.0863,35.6939],[73.0812,35.8184],[73.0422,35.8061],[72.9649,35.8278],[72.884,35.8247],[72.7955,35.7877],[72.6498,35.8045],[72.4942,35.8588],[72.466,35.8978],[72.5282,36.0145],[72.4792,36.0957],[72.5303,36.2702],[72.6067,36.3243],[72.6781,36.3224],[72.8351,36.424],[72.8664,36.502],[72.9306,36.5163],[72.9515,36.549],[73.0209,36.5795],[73.0413,36.6124],[73.0241,36.7069],[73.048,36.7416],[73.1694,36.7843],[73.2259,36.7637],[73.2879,36.7671],[73.4165,36.8021],[73.5234,36.7811],[73.6021,36.785],[73.6685,36.7554],[73.7162,36.7769],[73.7964,36.77],[73.6788,36.8233],[73.6618,36.8942],[73.6839,36.9356],[73.8443,36.9318],[73.9619,36.879],[74.0331,36.8667],[74.0603,36.8739],[74.1138,36.9459],[74.2214,36.9517],[74.3783,37.0415],[74.4351,37.0532],[74.4979,37.0445],[74.5243,37.0683],[74.6539,37.1038],[74.7348,37.0662],[74.8118,37.0613],[74.878,37.0006],[74.934,37.0263],[75.1194,37.0412],[75.2119,36.9968],[75.3322,36.9751],[75.4217,36.9185],[75.4562,36.7721],[75.5698,36.8167],[75.754,36.7663],[75.9113,36.6536],[76.0112,36.4921],[76.1688,36.4706],[76.2594,36.3729],[76.3224,36.3799],[76.4073,36.3562],[76.4874,36.2668],[76.5756,36.2404],[76.6825,36.2385],[76.7485,36.2001],[76.8051,36.1286],[76.8287,36.0445],[76.8289,35.9335],[76.8621,35.9055],[77.0284,35.8656],[77.1002,35.8187],[77.1235,35.7831],[77.2135,35.7601],[77.3599,35.7685],[77.4382,35.6958],[77.4955,35.6942],[77.5546,35.5999],[77.5652,35.5217],[77.6543,35.5094],[77.7565,35.5479],[77.8802,35.5334],[77.9175,35.595],[77.9477,35.6112],[78.0787,35.5926],[78.1278,35.6602],[78.2018,35.6908],[78.2521,35.7387],[78.4211,35.8089],[78.5274,35.8287],[78.6539,35.9013],[78.9705,35.9374],[79.0458,35.9002],[79.118,35.8891],[79.1394,35.9066],[79.1346,35.9509],[79.1511,35.9793],[79.2877,36.0272],[79.4171,36.0091],[79.4615,35.9728],[79.4829,35.9313],[79.7479,35.8511],[79.8596,35.8373],[79.904,35.8701],[80.0237,35.8851],[80.141,35.7251],[80.1967,35.7133],[80.3305,35.6387],[80.3757,35.4652],[80.3328,35.419],[80.3082,35.2525],[80.2362,35.1336],[80.2099,34.9346],[80.13,34.8236],[80.1334,34.7621],[80.0732,34.625],[80.0026,34.598],[79.8943,34.6056],[79.8434,34.5254],[79.7683,34.5027],[79.7851,34.4504],[79.7362,34.3712],[79.6699,34.3574],[79.5692,34.3737],[79.5984,34.1921],[79.5426,34.1352],[79.5358,34.0771],[79.4315,33.9792],[79.3779,33.9615],[79.1427,33.9757],[79.0801,33.9464],[78.9497,33.9557],[78.9401,33.9427],[78.9875,33.8281],[79.0378,33.7702],[79.0626,33.6377],[79.0243,33.5743],[78.94,33.5806],[78.962,33.4222],[78.9949,33.3857],[79.087,33.3451],[79.4276,33.3246],[79.4921,33.2851],[79.5033,33.2338],[79.4664,33.1323],[79.4303,33.0964],[79.4463,33.0102],[79.5967,32.8328],[79.6561,32.7919],[79.663,32.7021],[79.468,32.4912],[79.3895,32.4828],[79.3453,32.5339],[79.3086,32.4873],[79.1516,32.4328],[79.1011,32.3279],[79.0337,32.3259],[78.9507,32.2969],[78.885,32.3122],[78.7371,32.4254],[78.6891,32.5612],[78.6384,32.5287],[78.449,32.5145],[78.5002,32.4306],[78.488,32.3778],[78.5112,32.2622],[78.5488,32.2426],[78.6825,32.075],[78.7554,32.0319],[78.7918,31.9807],[78.7294,31.7836],[78.7538,31.7184],[78.793,31.7024],[78.8572,31.6396],[78.8689,31.6076],[78.8542,31.5719],[78.7678,31.5011],[78.8117,31.4541],[78.7994,31.3389],[78.904,31.3293],[79.0497,31.507],[79.0831,31.5097],[79.1539,31.4831],[79.281,31.3557],[79.3604,31.1753],[79.4088,31.1391],[79.4373,31.0695],[79.5015,31.0573],[79.5445,31.0069],[79.5771,30.9931],[79.736,31.0292],[79.8745,30.9983],[79.9339,30.9315],[80.0344,30.8881],[80.0909,30.8279],[80.1728,30.8406],[80.2611,30.7682],[80.274,30.7266],[80.2382,30.6471],[80.2525,30.6149],[80.3426,30.5936],[80.52,30.512],[80.6199,30.5039],[80.7508,30.4336],[80.8112,30.3638],[81.0008,30.2986],[81.0479,30.2354],[81.052,30.2012],[81.0264,30.1572],[80.929,30.1273],[80.8983,30.1321],[80.8661,30.0827],[80.8033,30.0396],[80.7474,29.9746],[80.6654,29.9196],[80.6079,29.9041],[80.5081,29.7677],[80.411,29.722],[80.4312,29.5853],[80.3729,29.5232],[80.3593,29.4848],[80.2736,29.4027],[80.3298,29.3153],[80.3043,29.183],[80.2539,29.0887],[80.1733,29.0667],[80.1447,28.956],[80.0899,28.913],[80.0854,28.87],[80.1428,28.8436],[80.1887,28.7976],[80.2631,28.7728],[80.3279,28.7235],[80.3577,28.6771],[80.4386,28.6661],[80.495,28.7247],[80.572,28.7263],[80.6052,28.6877],[80.6628,28.6698],[80.7079,28.618],[80.8037,28.5614],[80.8992,28.539],[80.9348,28.4893],[80.9974,28.4821],[81.0318,28.4415],[81.1941,28.405],[81.2664,28.2786],[81.3284,28.2063],[81.36,28.2159],[81.4226,28.203],[81.4727,28.1629],[81.5083,28.1055],[81.6383,28.027],[81.7141,28.0064],[81.8691,27.9007],[81.96,27.9644],[82.0371,27.9614],[82.373,27.7692],[82.4267,27.7222],[82.6485,27.754],[82.6964,27.7415],[82.7227,27.7199],[82.7562,27.6481],[82.7759,27.5436],[82.8878,27.5362],[83.0183,27.4934],[83.1482,27.4918],[83.2483,27.4345],[83.2885,27.3841],[83.3179,27.4103],[83.3133,27.4787],[83.3757,27.5192],[83.5993,27.5058],[83.7843,27.429],[83.7902,27.4579],[83.8157,27.4805],[83.9189,27.4998],[83.9899,27.493],[84.0566,27.5539],[84.1325,27.5609],[84.2069,27.4896],[84.253,27.4822],[84.3135,27.4228],[84.59,27.3773],[84.6332,27.3528],[84.7071,27.211],[84.7039,27.1182],[84.6827,27.0695],[84.7617,27.0503],[84.836,27.057],[84.9515,26.9974],[84.9886,26.938],[85.0581,26.9043],[85.1271,26.9155],[85.184,26.8959],[85.2091,26.868],[85.2194,26.8045],[85.3145,26.7933],[85.3713,26.8363],[85.4309,26.8378],[85.6211,26.8996],[85.7415,26.827],[85.7611,26.6788],[85.7954,26.6516],[85.8471,26.6362],[85.9337,26.6885],[86.0106,26.7044],[86.1939,26.6347],[86.2933,26.6612],[86.3356,26.6319],[86.513,26.5745],[86.7012,26.4773],[86.7322,26.4933],[86.8018,26.4896],[86.8501,26.5377],[87.05,26.6294],[87.0871,26.6003],[87.1136,26.4853],[87.1391,26.446],[87.2342,26.4558],[87.2971,26.4021],[87.3299,26.4461],[87.4139,26.4769],[87.4917,26.4721],[87.5855,26.433],[87.6682,26.4725],[87.714,26.4644],[87.7567,26.4999],[87.8148,26.491],[87.8735,26.5145],[87.9835,26.4209],[88.0257,26.4734],[88.0318,26.5314],[88.1176,26.7499],[88.1033,26.846],[88.0383,26.9586],[87.967,27.0193],[87.9192,27.1108],[87.9416,27.2331],[87.9812,27.3243],[87.9649,27.375],[87.9882,27.441],[87.975,27.5077],[88.0656,27.6612],[88.1103,27.7846],[88.1121,27.8102],[88.0715,27.8431],[88.0523,27.9435],[88.1112,27.998],[88.3614,28.0308],[88.4382,28.0783],[88.485,28.0799],[88.5883,28.1563],[88.6704,28.117],[88.7587,28.0997],[88.8385,28.0461],[88.8663,27.9954],[88.8634,27.9384],[88.9046,27.8524],[88.8525,27.6376],[88.8006,27.5368],[88.8049,27.4709],[88.816,27.4388],[88.9302,27.3482],[88.9422,27.3124],[88.9207,27.2517],[88.8112,27.2002],[88.7967,27.1716],[88.867,27.1287],[88.8968,27.0301],[88.9385,27.0196],[88.9667,26.9668],[89.0487,26.9547],[89.1261,26.8694],[89.2026,26.8639],[89.2608,26.8922],[89.3483,26.9039],[89.4536,26.8484],[89.513,26.8531],[89.6069,26.8295],[89.661,26.7713],[89.7894,26.7527],[89.8293,26.7812],[89.894,26.766],[90.1062,26.7987],[90.1523,26.8753],[90.1983,26.8999],[90.2686,26.906],[90.3461,26.9466],[90.4025,26.9377],[90.6028,26.8288],[90.7183,26.8172],[90.9963,26.8316],[91.0629,26.8546],[91.2033,26.8521],[91.2936,26.8274],[91.3568,26.8972],[91.4156,26.9213],[91.4989,26.9095],[91.544,26.8526],[91.6931,26.8542],[91.8092,26.9059],[91.8481,26.9029],[91.8876,26.9311],[92.014,26.9023],[92.0323,26.9357],[92.0221,26.9703],[91.9566,27.0465],[91.9379,27.1213],[91.9927,27.26],[92.0301,27.3027],[91.9845,27.4109],[91.9639,27.4218],[91.719,27.4106],[91.6345,27.4347],[91.5691,27.4968],[91.5234,27.6231],[91.5333,27.6762],[91.5816,27.7554],[91.5192,27.8035],[91.5148,27.8582],[91.53,27.8877],[91.5602,27.9012],[91.6911,27.8986],[91.7486,27.8548],[91.848,27.8528],[91.8969,27.7782],[91.9298,27.7762],[91.9698,27.8156],[92.0491,27.8136],[92.1014,27.8561],[92.2281,27.914],[92.2671,27.907],[92.2983,27.8722],[92.3485,27.879],[92.3869,27.9057],[92.4368,27.8828],[92.5576,27.8976],[92.6524,27.9529],[92.6746,27.9848],[92.6077,28.0184],[92.59,28.0472],[92.6438,28.169],[92.7614,28.2426],[92.8134,28.2323],[92.8781,28.2925],[92.9541,28.3278],[93.1639,28.3811],[93.1388,28.4164],[93.1415,28.4542],[93.2444,28.5496],[93.2893,28.6449],[93.4364,28.7209],[93.6193,28.7223],[93.7204,28.7466],[93.7811,28.7325],[93.8589,28.7547],[93.9066,28.7428],[93.9618,28.8845],[94.1098,28.9416],[94.1578,28.9776],[94.2296,28.9824],[94.2747,29.0248],[94.221,29.0936],[94.2537,29.1848],[94.3151,29.1989],[94.3816,29.2548],[94.4901,29.2685],[94.5907,29.3658],[94.6417,29.3682],[94.7299,29.3276],[94.808,29.2434],[94.8176,29.2143],[95.0027,29.2021],[95.2179,29.1408],[95.2533,29.1054],[95.3647,29.0876],[95.4527,29.1114],[95.4704,29.1475],[95.4664,29.2198],[95.4841,29.2485],[95.5589,29.2953],[95.6905,29.2738],[95.7049,29.3706],[95.7841,29.4015],[95.8641,29.378],[95.9459,29.4086],[96.1497,29.4179],[96.1801,29.4008],[96.2173,29.318],[96.2457,29.2962],[96.3407,29.3234],[96.3732,29.3185],[96.4126,29.2645],[96.4137,29.2266],[96.3557,29.1392],[96.2272,29.0914],[96.2384,29.0006],[96.3585,29.0859],[96.4869,29.0351],[96.5365,28.9712],[96.5557,28.91],[96.6203,28.8329],[96.648,28.7108],[96.6269,28.6691],[96.5523,28.6481],[96.5411,28.6128],[96.3695,28.4372],[96.565,28.4972],[96.7313,28.4844],[96.9665,28.3845],[97.0697,28.4244],[97.1361,28.4121],[97.3657,28.2443],[97.3785,28.1857],[97.3502,28.1053],[97.3983,28.0482],[97.4117,28.002],[97.3653,27.8556],[97.2924,27.8276],[97.2446,27.853],[97.1084,27.7444],[97.0884,27.708],[97.0153,27.6818],[96.916,27.5927],[96.9383,27.5113],[96.9335,27.4599],[97.1804,27.1477],[97.1829,27.1139],[97.1474,27.0461],[97.0246,27.0389],[96.8393,27.129],[96.7953,27.1726],[96.8,27.2328],[96.7472,27.2887],[96.7055,27.3063],[96.6549,27.2866],[96.6045,27.2967],[96.5742,27.2643],[96.5187,27.2431],[96.4102,27.248],[96.1582,27.2093],[96.0472,27.1521],[95.9516,27.0158],[95.8814,26.9683],[95.8062,26.9503],[95.7276,26.8549],[95.6526,26.8355],[95.5962,26.771],[95.5165,26.7623],[95.4365,26.6589],[95.2728,26.5991],[95.2189,26.6094],[95.1662,26.5761],[95.1527,26.526],[95.0981,26.4645],[95.1161,26.4067],[95.093,26.2886],[95.1026,26.2491],[95.1422,26.2101],[95.1336,26.139],[95.1791,26.1107],[95.1987,26.0343],[95.0998,25.9171],[95.052,25.8915],[95.0587,25.7346],[95.0466,25.7044],[94.9921,25.6764],[94.9095,25.5756],[94.8929,25.5293],[94.8493,25.5137],[94.7902,25.4489],[94.6888,25.4127],[94.6516,25.3687],[94.602,25.2229],[94.7288,25.169],[94.7564,25.1163],[94.7565,25.0116],[94.7203,24.9546],[94.7004,24.8685],[94.6457,24.7926],[94.6255,24.7063],[94.5519,24.6582],[94.517,24.5702],[94.4605,24.5281],[94.3757,24.341],[94.3388,24.304],[94.2361,23.9753],[94.1842,23.9017],[94.1716,23.8267],[94.0855,23.7947],[94.0275,23.8447],[93.9043,23.8888],[93.7855,23.8895],[93.7024,23.9557],[93.6322,23.9583],[93.5797,23.9188],[93.5382,23.9282],[93.4443,23.9115],[93.3549,24.0128],[93.4048,23.9178],[93.4226,23.7612],[93.4802,23.6836],[93.4504,23.4524],[93.4568,23.3407],[93.4277,23.2829],[93.4237,23.1186],[93.3443,22.991],[93.2804,22.9565],[93.2341,22.9561],[93.2053,22.9732],[93.2227,22.8652],[93.1268,22.7449],[93.1219,22.7001],[93.1604,22.6001],[93.1509,22.5212],[93.2152,22.395],[93.2188,22.2379],[93.1867,22.2093],[93.1895,22.1725],[93.1688,22.1453],[93.0751,22.1452],[93.0673,22.0855],[93.0195,22.054],[93.0289,21.9941],[93.0132,21.9589],[92.9697,21.9375],[92.9291,21.949],[92.8894,21.9084],[92.8436,21.9202],[92.7963,22.0134],[92.715,22.071],[92.696,21.9976],[92.6752,21.9754],[92.5819,21.9279],[92.5497,21.935],[92.5288,21.9606],[92.4879,22.121],[92.4967,22.1578],[92.5244,22.1772],[92.4518,22.551],[92.4465,22.6773],[92.3952,22.7455],[92.3796,22.845],[92.3111,22.9155],[92.2776,23.1699],[92.3067,23.2828],[92.3002,23.3375],[92.2547,23.4142],[92.2039,23.5991],[92.162,23.61],[92.1292,23.665],[92.0904,23.62],[92.0361,23.5931],[92.003,23.5927],[91.9724,23.6142],[91.9861,23.4741],[91.9359,23.4073],[91.8538,23.3634],[91.7975,23.2657],[91.8447,23.0986],[91.8401,23.0667],[91.7355,22.9543],[91.6424,22.9321],[91.584,22.8945],[91.4826,22.9666],[91.4112,23.1679],[91.4206,23.0574],[91.3975,23.0204],[91.3166,23.0256],[91.2717,23.0737],[91.218,23.3439],[91.1843,23.4394],[91.1514,23.4709],[91.0867,23.6227],[91.0842,23.734],[91.1079,23.7767],[91.1583,23.7967],[91.1741,23.8337],[91.1706,23.9286],[91.2398,24.0245],[91.2983,24.0411],[91.3282,24.1358],[91.363,24.1498],[91.5586,24.1429],[91.5836,24.2362],[91.621,24.2647],[91.6582,24.256],[91.6829,24.2235],[91.6913,24.2619],[91.7272,24.284],[91.8207,24.2692],[91.85,24.2465],[91.8502,24.3438],[91.8649,24.3739],[91.9373,24.4238],[92.0583,24.431],[92.0633,24.5295],[92.1204,24.588],[92.183,24.7831],[92.173,24.8916],[92.1847,24.9235],[92.2573,24.9527],[92.3881,24.8907],[92.4346,24.9037],[92.2826,25.0269],[92.2164,25.038],[92.1528,25.0842],[92.0999,25.0922],[92.0281,25.1313],[91.7541,25.1185],[91.6412,25.0741],[91.5809,25.0813],[91.5511,25.1036],[91.4892,25.086],[91.4248,25.0885],[91.2313,25.1508],[90.8241,25.0923],[90.7526,25.1147],[90.7073,25.103],[90.6201,25.121],[90.3631,25.1],[90.1174,25.1632],[89.9021,25.2457],[89.7976,25.2398],[89.7722,25.2674],[89.7451,25.3711],[89.7839,25.6297],[89.7331,25.8153],[89.7682,25.9052],[89.7105,26.0114],[89.6842,26.1026],[89.6531,26.1104],[89.6571,26.052],[89.6036,25.9956],[89.5862,25.937],[89.5611,25.9136],[89.4997,25.9156],[89.4647,25.947],[89.3221,25.9503],[89.2077,26.0181],[89.1773,26.0608],[89.0843,26.1108],[89.0576,26.1994],[88.9713,26.1745],[88.8849,26.2159],[88.824,26.1766],[88.792,26.1889],[88.7476,26.2397],[88.6694,26.2148],[88.6359,26.2227],[88.6073,26.2442],[88.5958,26.2764],[88.6382,26.3336],[88.5608,26.4167],[88.5248,26.4246],[88.5476,26.3553],[88.5313,26.3158],[88.5003,26.3028],[88.4468,26.3095],[88.3831,26.2557],[88.3592,26.1783],[88.2042,26.108],[88.1976,26.0132],[88.1264,25.9007],[88.1477,25.8329],[88.2287,25.8543],[88.2888,25.8299],[88.4554,25.6885],[88.4718,25.6223],[88.5545,25.5484],[88.6603,25.5202],[88.7347,25.5622],[88.7973,25.5453],[88.8595,25.4813],[88.8534,25.4053],[88.8759,25.372],[88.9146,25.3533],[88.999,25.3467],[89.0339,25.295],[89.0265,25.2571],[88.9784,25.208],[88.9687,25.1451],[88.9399,25.1204],[88.8334,25.1406],[88.7833,25.111],[88.6285,25.1424],[88.5602,25.1208],[88.486,25.14],[88.4714,25.0305],[88.36,24.8413],[88.3241,24.8247],[88.2297,24.8323],[88.1795,24.8851],[88.1863,24.8235],[88.0935,24.714],[88.0828,24.677],[88.1271,24.621],[88.1435,24.5407],[88.4219,24.415],[88.4946,24.3633],[88.6081,24.3481],[88.6334,24.3805],[88.6703,24.3872],[88.7426,24.3568],[88.7852,24.3022],[88.7931,24.1962],[88.7268,24.1305],[88.725,24.0969],[88.7741,24.0476],[88.7539,23.9868],[88.7615,23.909],[88.6832,23.8299],[88.6273,23.8138],[88.6061,23.7676],[88.5959,23.6692],[88.7244,23.5368],[88.7743,23.5456],[88.817,23.5063],[88.8178,23.4735],[88.7388,23.2896],[88.7767,23.2749],[88.8303,23.2874],[88.9724,23.2511],[89.0083,23.2155],[89.001,23.1741],[88.899,23.0541],[88.8905,22.9861],[88.9306,22.9154],[88.9928,22.8609],[88.9857,22.7717],[88.9631,22.7323],[89.0515,22.4382],[89.0491,22.3512],[89.1275,22.1588],[89.1218,22.1264],[89.089,22.089],[89.1069,22.0385],[89.1091,21.9253],[89.0929,21.9],[89.0553,21.8845],[89.0902,21.7542],[89.1338,21.6865],[89.1257,21.5918],[89.061,21.5604],[88.9976,21.5535],[88.9536,21.5699],[88.9571,21.5217],[88.9356,21.489],[88.8329,21.4823],[88.7908,21.5179],[88.7201,21.5105],[88.674,21.5413],[88.6477,21.6568],[88.6167,21.5351],[88.5633,21.488],[88.4887,21.4809],[88.4458,21.5296],[88.4386,21.5639],[88.3918,21.5503],[88.3556,21.5672],[88.3306,21.5283],[88.2416,21.5064],[88.1609,21.5866],[88.1271,21.576],[88.051,21.5882],[88.0012,21.6304],[87.9934,21.6629],[88.041,21.8193],[88.0315,21.838],[87.8625,21.6882],[87.7244,21.6099],[87.484,21.5637],[87.3504,21.5131],[87.2157,21.5029],[87.0943,21.4348],[86.9561,21.2951],[86.8879,21.1676],[86.8932,21.0945],[87.0141,20.7936],[87.04,20.7478],[87.0843,20.7266],[87.0897,20.6796],[87.0321,20.616],[86.9489,20.5784],[86.8218,20.4803],[86.8594,20.4085],[86.7952,20.2852],[86.6505,20.1905],[86.5356,20.1461],[86.511,20.0707],[86.4685,20.0259],[86.4756,19.991],[86.4589,19.9613],[86.392,19.919],[86.1041,19.7965],[86.0555,19.8037],[85.6201,19.6663],[85.3611,19.5314],[85.21,19.4345],[84.9077,19.1845],[84.7046,18.8995],[84.6647,18.8757],[84.58,18.7434],[84.3862,18.5185],[84.1858,18.3449],[84.1461,18.2607],[83.7985,18.0953],[83.6449,18.0053],[83.5025,17.8623],[83.3387,17.6338],[83.2883,17.6004],[83.2665,17.5513],[83.1113,17.4862],[82.9192,17.3646],[82.8758,17.364],[82.7414,17.3041],[82.5083,17.1676],[82.4559,17.1024],[82.4164,17.0843],[82.3451,17.0063],[82.3857,16.9903],[82.4135,16.9259],[82.4156,16.8111],[82.3852,16.6615],[82.3348,16.538],[82.0138,16.3631],[81.8798,16.3284],[81.7729,16.2736],[81.7059,16.2625],[81.6439,16.2881],[81.4984,16.3097],[81.4098,16.2906],[81.3691,16.3251],[81.3072,16.303],[81.3002,16.2519],[81.2742,16.2179],[81.2052,16.0276],[81.1939,15.9461],[81.0538,15.827],[81.0625,15.7776],[81.0507,15.7455],[80.9613,15.6947],[80.9197,15.6966],[80.8727,15.7388],[80.8371,15.6763],[80.7812,15.6737],[80.7576,15.7097],[80.7532,15.8271],[80.6949,15.851],[80.551,15.823],[80.4214,15.7553],[80.3209,15.6701],[80.256,15.5189],[80.2559,15.4743],[80.1701,15.3624],[80.1388,15.2903],[80.1036,15.0918],[80.1552,14.738],[80.2036,14.6868],[80.2468,14.569],[80.2259,14.4632],[80.224,14.3346],[80.1812,14.2497],[80.1764,14.1504],[80.1977,14.0428],[80.2968,13.8158],[80.2734,13.6991],[80.374,13.4474],[80.3978,13.3474],[80.3624,13.0943],[80.334,13.0488],[80.3006,12.7522],[80.2274,12.5177],[80.1388,12.3365],[80.0549,12.2373],[79.9118,12.0072],[79.9101,11.965],[79.8344,11.7562],[79.8029,11.5782],[79.8216,11.4955],[79.8652,11.4552],[79.9049,11.1659],[79.8907,10.949],[79.9059,10.2844],[79.8795,10.2488],[79.764,10.2084],[79.5469,10.2496],[79.5165,10.2689],[79.4606,10.2583],[79.4066,10.2707],[79.3285,10.2206],[79.2898,10.1484],[79.3003,10.0823],[79.3277,10.0472],[79.3235,10.013],[79.2384,9.9369],[79.1363,9.7756],[79.0287,9.6465],[78.9848,9.5627],[78.9661,9.481],[78.9988,9.4183],[79.0926,9.3488],[79.2412,9.3393],[79.3168,9.3732],[79.3664,9.359],[79.3891,9.3297],[79.393,9.2732],[79.4922,9.1908],[79.4998,9.1398],[79.468,9.1111],[79.4139,9.1101],[79.273,9.2031],[79.1672,9.223],[79.085,9.2039],[78.9927,9.2258],[78.858,9.1953],[78.7452,9.1406],[78.6976,9.1354],[78.6492,9.0967],[78.4335,9.0531],[78.2772,8.9313],[78.2304,8.8587],[78.2266,8.8355],[78.256,8.8083],[78.2633,8.7518],[78.211,8.7017],[78.1821,8.6273],[78.1923,8.5918],[78.1756,8.472],[78.1239,8.4065],[78.0928,8.3299],[77.8396,8.1904],[77.7891,8.136],[77.6165,8.0927],[77.6048,8.0518],[77.5712,8.0329],[77.5025,8.0267],[77.2865,8.0861],[76.9656,8.3283],[76.6076,8.7851],[76.5006,8.8875],[76.3172,9.305],[76.264,9.4784],[76.2281,9.7996],[76.1872,9.9436],[76.1923,9.9763],[76.1358,10.0875],[76.1276,10.1681],[76.0081,10.489],[75.9643,10.5429],[75.8745,10.7503],[75.7853,11.0817],[75.6813,11.3388],[75.6307,11.4224],[75.565,11.461],[75.4634,11.6998],[75.3638,11.8084],[75.3191,11.8237],[75.259,11.9207],[75.1481,12.0017],[75.0896,12.1739],[75.0607,12.1991],[75.0363,12.2865],[74.9466,12.4409],[74.7799,12.8097],[74.7208,13.0455],[74.7303,13.0868],[74.6405,13.3715],[74.6309,13.4682],[74.6412,13.4985],[74.5681,13.8157],[74.4487,14.0127],[74.4201,14.1625],[74.3811,14.2261],[74.3825,14.2635],[74.3151,14.4759],[74.2564,14.504],[74.2123,14.6692],[74.1683,14.6731],[74.0594,14.7598],[74.0415,14.8076],[74.0558,14.8465],[73.9932,14.8954],[73.9833,14.9616],[73.9314,15.0219],[73.8696,15.0542],[73.8649,15.0921],[73.8958,15.1581],[73.851,15.3042],[73.7969,15.3256],[73.7392,15.3835],[73.7465,15.4514],[73.7217,15.4746],[73.6891,15.5865],[73.639,15.6872],[73.6017,15.7141],[73.5963,15.781],[73.5632,15.8516],[73.4523,15.9617],[73.3998,16.0524],[73.3892,16.1804],[73.3666,16.2067],[73.336,16.3227],[73.3107,16.3522],[73.3138,16.3903],[73.2536,16.525],[73.2686,16.6818],[73.2406,16.7303],[73.2481,16.789],[73.2196,16.8711],[73.2253,16.9663],[73.2013,17.0307],[73.2236,17.0794],[73.1895,17.2011],[73.1383,17.2947],[73.1477,17.3368],[73.1207,17.386],[73.1289,17.4647],[73.0771,17.5463],[73.0872,17.588],[73.0555,17.6867],[73.0689,17.7334],[72.9717,17.9342],[72.9736,17.9737],[72.9389,18.0539],[72.9201,18.1742],[72.8777,18.2149],[72.8976,18.3124],[72.8686,18.3374],[72.8426,18.4189],[72.8464,18.5107],[72.863,18.5414],[72.8179,18.6307],[72.8017,18.7195],[72.821,18.822],[72.8736,18.8495],[72.8553,18.8667],[72.8193,18.8533],[72.7776,18.8666],[72.7207,18.9423],[72.7697,19.1059],[72.7325,19.1504],[72.7386,19.3313],[72.7154,19.3662],[72.705,19.4891],[72.6746,19.522],[72.6294,19.7876],[72.5993,19.8554],[72.6176,19.9682],[72.6549,20.0178],[72.6618,20.0951],[72.698,20.2013],[72.7009,20.2964],[72.7408,20.3812],[72.7721,20.406],[72.7846,20.4601],[72.8363,20.5453],[72.8605,20.764],[72.7921,20.8136],[72.8061,20.8888],[72.7887,20.9441],[72.7323,20.9934],[72.718,21.028],[72.6163,21.0403],[72.5664,21.0942],[72.5881,21.1627],[72.639,21.1996],[72.5756,21.2272],[72.517,21.4012],[72.5831,21.5215],[72.746,21.6268],[72.6214,21.635],[72.5394,21.6179],[72.4816,21.6778],[72.5199,21.8664],[72.452,21.9815],[72.4883,22.1559],[72.5208,22.2046],[72.4646,22.1826],[72.3617,22.2136],[72.3503,22.0529],[72.2871,21.9718],[72.2051,21.9373],[72.2196,21.895],[72.2118,21.815],[72.2549,21.7453],[72.3132,21.7188],[72.3486,21.6209],[72.2634,21.4201],[72.161,21.3032],[72.1442,21.2485],[72.1544,21.1991],[72.1386,21.1683],[72.0126,21.0914],[71.9423,21.0814],[71.7839,20.9869],[71.7306,20.9821],[71.6031,20.9122],[71.5493,20.9013],[71.4845,20.8405],[71.3355,20.802],[71.1573,20.7186],[71.0307,20.6904],[70.99,20.6607],[70.8377,20.652],[70.7715,20.6749],[70.7242,20.6711],[70.518,20.7637],[70.3097,20.885],[70.02,21.1169],[69.8046,21.3601],[69.7712,21.4282],[69.7254,21.4512],[69.5994,21.5757],[69.5336,21.6141],[69.4466,21.7132],[69.3898,21.7483],[69.3481,21.8091],[69.3078,21.8213],[69.1615,21.946],[68.9534,22.1749],[68.8956,22.2852],[68.9416,22.447],[69.0634,22.5308],[69.1094,22.5168],[69.1321,22.4558],[69.183,22.4774],[69.2406,22.4468],[69.252,22.4113],[69.2336,22.3275],[69.3438,22.3765],[69.4556,22.3899],[69.4722,22.4079],[69.4706,22.4693],[69.5,22.4955],[69.5752,22.494],[69.6006,22.4244],[69.6692,22.4592],[69.6926,22.5089],[69.7197,22.5281],[69.7571,22.5241],[69.7919,22.4923],[69.8637,22.5205],[69.9588,22.5894],[70.0547,22.6082],[70.1449,22.6021],[70.2702,22.7948],[70.2761,22.8412],[70.3058,22.8882],[70.2505,22.9182],[69.852,22.8115],[69.7204,22.6971],[69.576,22.7121],[69.3276,22.7841],[69.1851,22.8051],[69.0175,22.9056],[68.8432,22.9756],[68.6227,23.1188],[68.5524,23.2097],[68.5221,23.2198],[68.4983,23.2523],[68.4913,23.2838],[68.5072,23.3211],[68.3816,23.4187],[68.3604,23.5495],[68.3298,23.537],[68.1739,23.5446],[68.1029,23.5833],[68.0935,23.6154],[68.1051,23.6531],[68.1524,23.6814],[68.1578,23.6996]],[[80.2185,13.5299],[80.1798,13.5958],[80.1383,13.5692],[80.1521,13.5447],[80.2185,13.5299]],[[85.301,19.6954],[85.515,19.7886],[85.518,19.838],[85.4613,19.8486],[85.3485,19.7528],[85.293,19.7349],[85.264,19.704],[85.301,19.6954]],[[70.4605,23.0162],[70.4747,23.0449],[70.4668,23.0626],[70.455,23.0521],[70.4605,23.0162]]],[[[94.3359,13.4445],[94.3363,13.4022],[94.2993,13.3737],[94.2373,13.3857],[94.2126,13.4211],[94.2246,13.4626],[94.2734,13.493],[94.3106,13.4838],[94.3359,13.4445]]],[[[93.6314,7.2035],[93.5871,7.2248],[93.5481,7.295],[93.5463,7.3299],[93.5816,7.4029],[93.6316,7.4241],[93.6672,7.4853],[93.709,7.4936],[93.7421,7.4666],[93.7838,7.3434],[93.6798,7.2329],[93.7986,7.2894],[93.8414,7.2837],[93.909,7.2244],[93.9346,7.1064],[93.9776,7.0228],[93.9793,6.9513],[93.9428,6.8433],[93.9492,6.7889],[93.9264,6.7641],[93.8936,6.7572],[93.8536,6.6994],[93.8206,6.6974],[93.7741,6.7221],[93.7225,6.8807],[93.6681,6.9668],[93.6307,6.9666],[93.603,6.9939],[93.5999,7.1249],[93.6314,7.2035]]],[[[93.8737,12.2147],[93.83,12.2166],[93.8045,12.2522],[93.8089,12.297],[93.8523,12.3305],[93.8888,12.3225],[93.9218,12.2787],[93.9119,12.2376],[93.8737,12.2147]]],[[[93.6564,8.4205],[93.611,8.3884],[93.5622,8.4227],[93.5457,8.5664],[93.5915,8.6165],[93.6294,8.6142],[93.6548,8.5859],[93.6781,8.4886],[93.6564,8.4205]]],[[[93.3092,7.8564],[93.2567,7.9359],[93.282,8.0313],[93.3818,8.0646],[93.4196,8.0568],[93.3969,8.1589],[93.4057,8.1934],[93.464,8.2651],[93.5209,8.2758],[93.5535,8.2658],[93.5805,8.2007],[93.5595,8.1418],[93.6068,8.0269],[93.6239,7.9285],[93.6148,7.896],[93.5676,7.8753],[93.5096,7.9147],[93.4979,7.8446],[93.4538,7.8193],[93.4116,7.8379],[93.3477,7.8328],[93.3092,7.8564]]],[[[93.1849,8.1666],[93.1481,8.1558],[93.0829,8.1755],[93.0215,8.2449],[93.0162,8.3498],[93.0602,8.4],[93.0945,8.4047],[93.1381,8.3797],[93.1602,8.2871],[93.2179,8.2432],[93.2189,8.2013],[93.1849,8.1666]]],[[[93.0433,11.8465],[92.9071,11.9596],[92.8998,12.006],[92.9582,12.081],[93.0412,12.079],[93.0102,12.1311],[93.0189,12.2058],[93.0553,12.247],[93.097,12.2525],[93.1387,12.2258],[93.1533,12.1905],[93.1474,12.0786],[93.1139,12.045],[93.0734,12.0456],[93.1141,11.884],[93.0891,11.8545],[93.0433,11.8465]]],[[[92.579,11.5774],[92.5627,11.675],[92.5182,11.704],[92.5158,11.8023],[92.4849,11.8275],[92.475,11.86],[92.5338,11.9665],[92.5771,11.9821],[92.592,12.1496],[92.6395,12.2462],[92.7085,12.2749],[92.6678,12.3633],[92.672,12.605],[92.7056,12.6659],[92.6926,12.7483],[92.6586,12.7535],[92.6347,12.7837],[92.6203,12.8691],[92.6342,12.9735],[92.6924,13.0361],[92.7258,13.0355],[92.759,13.0099],[92.798,13.1381],[92.7837,13.1725],[92.8091,13.2639],[92.8006,13.3625],[92.8425,13.4197],[92.8498,13.4759],[92.8964,13.532],[92.908,13.5722],[92.9806,13.6172],[92.9441,13.649],[92.9492,13.6956],[93.0437,13.7291],[93.0729,13.7107],[93.1011,13.653],[93.085,13.6021],[93.1153,13.5475],[93.1053,13.4561],[93.1301,13.4126],[93.1216,13.372],[93.08,13.3316],[93.1292,13.2646],[93.1062,13.2091],[93.1002,13.1172],[93.0629,13.0086],[93.0364,12.9866],[93.0006,12.9846],[92.9789,12.9264],[93.0119,12.8793],[93.0078,12.7943],[93.0401,12.7304],[93.0249,12.6344],[93.0397,12.5101],[93.0111,12.4395],[92.9516,12.3724],[92.965,12.3352],[92.9344,12.2404],[92.9397,12.1842],[92.8833,12.1237],[92.8722,12.0864],[92.8353,12.0624],[92.8342,12.0085],[92.7963,11.9839],[92.8317,11.9587],[92.8492,11.8941],[92.8053,11.6876],[92.8134,11.6048],[92.7353,11.42],[92.7477,11.3699],[92.7233,11.3402],[92.645,11.3089],[92.5671,11.3359],[92.5449,11.3668],[92.5562,11.4288],[92.5867,11.4568],[92.5864,11.517],[92.603,11.5459],[92.579,11.5774]]],[[[92.6659,9.1549],[92.6709,9.2389],[92.7512,9.3127],[92.7922,9.3048],[92.8821,9.2153],[92.8772,9.1236],[92.815,9.0626],[92.7038,9.0891],[92.6659,9.1549]]],[[[92.6072,10.6182],[92.6201,10.5608],[92.5317,10.4616],[92.4983,10.4602],[92.4378,10.4918],[92.3727,10.4806],[92.3394,10.507],[92.3353,10.5403],[92.3606,10.6177],[92.3307,10.6611],[92.3286,10.7977],[92.3698,10.8336],[92.3945,10.887],[92.4635,10.9318],[92.5464,10.9418],[92.6109,10.8693],[92.648,10.7108],[92.6425,10.6603],[92.6072,10.6182]]],[[[92.2726,11.4836],[92.2342,11.4826],[92.1906,11.5166],[92.1673,11.5985],[92.1948,11.6427],[92.2895,11.6325],[92.3228,11.6062],[92.3303,11.5228],[92.2726,11.4836]]],[[[73.6944,10.7778],[73.6554,10.7789],[73.6262,10.8084],[73.6245,10.847],[73.6507,10.8753],[73.702,10.8743],[73.7297,10.8488],[73.7299,10.8068],[73.6944,10.7778]]],[[[73.5891,10.0996],[73.6119,10.1691],[73.6422,10.1929],[73.6865,10.1883],[73.7102,10.159],[73.6788,10.0382],[73.6476,10.0096],[73.6099,10.0127],[73.5852,10.0414],[73.5891,10.0996]]],[[[73.0267,8.3241],[73.0549,8.3579],[73.088,8.3654],[73.1182,8.3501],[73.1318,8.314],[73.0998,8.2336],[73.022,8.2055],[72.9847,8.2247],[72.9725,8.275],[72.988,8.3105],[73.0267,8.3241]]],[[[72.9548,11.4823],[72.9626,11.5163],[72.9941,11.5484],[73.0328,11.5482],[73.0598,11.5204],[73.0512,11.4591],[73.0228,11.4327],[72.9756,11.4396],[72.9548,11.4823]]],[[[72.7303,11.1651],[72.7256,11.2347],[72.7549,11.2903],[72.7875,11.3109],[72.825,11.3023],[72.8458,11.2646],[72.8325,11.2012],[72.7951,11.1406],[72.7892,11.0862],[72.7555,11.0607],[72.7144,11.07],[72.6934,11.1042],[72.6988,11.1411],[72.7303,11.1651]]],[[[72.7318,11.645],[72.6934,11.6387],[72.6622,11.662],[72.6567,11.705],[72.6791,11.735],[72.7226,11.7437],[72.7586,11.7206],[72.7635,11.6782],[72.7318,11.645]]],[[[72.658,10.5152],[72.6066,10.5093],[72.578,10.5471],[72.5904,10.5883],[72.6408,10.6233],[72.6795,10.6134],[72.6999,10.5809],[72.6939,10.5477],[72.658,10.5152]]],[[[72.4911,10.772],[72.5031,10.8093],[72.5412,10.8289],[72.5788,10.8195],[72.5984,10.786],[72.5882,10.7486],[72.5467,10.7232],[72.5096,10.7342],[72.4911,10.772]]],[[[72.1297,10.8566],[72.1454,10.8856],[72.1927,10.9139],[72.2301,10.9044],[72.2496,10.8711],[72.2151,10.7828],[72.1792,10.7597],[72.1272,10.7885],[72.1297,10.8566]]]]}}]}